COSMOS 2058             
1 20465U 90010A   26069.90610966  .00004905  00000+0  28919-3 0  9996
2 20465  82.4669  46.2293 0009176 340.4374  19.6502 15.11334515942421
SL-14 R/B               
1 20466U 90010B   26069.96838223  .00000489  00000+0  56414-4 0  9996
2 20466  82.4988 266.1873 0018470 297.7994  62.1348 14.83569944928678
SL-14 R/B               
1 20511U 90018B   26069.91994578  .00000634  00000+0  76456-4 0  9996
2 20511  82.5205 221.9395 0017666  88.3207 272.0031 14.82146372922767
HST                     
1 20580U 90037B   26069.98675882  .00008846  00000+0  29254-3 0  9990
2 20580  28.4718  31.1498 0001852 138.4359 221.6377 15.29506520773518
SL-16 R/B               
1 20625U 90046B   26069.89895085 -.00000211  00000+0 -84397-4 0  9999
2 20625  70.9986 295.3750 0016226 297.9865  61.9615 14.15011999848569
COSMOS 2084             
1 20663U 90055A   26069.91741754  .00002914  00000+0  21411-3 0  9994
2 20663  62.7921 331.3911 0016909 190.3877 169.6877 15.05660234936506
SL-6 R/B(2)             
1 20666U 90055D   26069.90173755  .00002544  00000+0  19859-3 0  9998
2 20666  62.7825 249.7283 0024978 347.3471  12.6998 15.03601272938378
SL-8 R/B                
1 20775U 90078B   26069.91952151  .00018781  00000+0  55322-3 0  9995
2 20775  82.9009 250.2045 0361972   9.8615 350.9457 14.89109183809482
SL-8 R/B                
1 21088U 91006B   26069.79849727  .00000080  00000+0  64914-4 0  9996
2 21088  82.9466 169.2217 0023015  35.2911  85.1935 13.77494391764226
OKEAN-3                 
1 21397U 91039A   26069.80943677  .00004425  00000+0  31097-3 0  9998
2 21397  82.5193 335.7590 0013857 333.9632  26.0896 15.04815448865209
COSMOS 2151             
1 21422U 91042A   26069.95071536  .00001866  00000+0  14725-3 0  9998
2 21422  82.4930  82.4595 0013960  60.0746 300.1862 15.00109107863386
SL-14 R/B               
1 21423U 91042B   26069.90567994  .00000622  00000+0  75710-4 0  9993
2 21423  82.4926 219.0420 0015845 234.3485 125.6254 14.81831051853255
