CCSDS_OMM_VERS = 2.0
CREATION_DATE  = 
ORIGINATOR     = 

OBJECT_NAME    = COSMOS 2058
OBJECT_ID      = 1990-010A
CENTER_NAME    = EARTH
REF_FRAME      = TEME
TIME_SYSTEM    = UTC
MEAN_ELEMENT_THEORY = SGP/SGP4

EPOCH          = 2026-03-10T21:44:47.874624
MEAN_MOTION    = 15.11334515
ECCENTRICITY   = .00091768
INCLINATION    = 82.4669
RA_OF_ASC_NODE = 46.2293
ARG_OF_PERICENTER = 340.4374
MEAN_ANOMALY   = 19.6502

EPHEMERIS_TYPE = 0
CLASSIFICATION_TYPE = U
NORAD_CAT_ID   = 20465
ELEMENT_SET_NO = 999
REV_AT_EPOCH   = 94242
BSTAR          = .28918575E-3
MEAN_MOTION_DOT = .4905E-4
MEAN_MOTION_DDOT = 0

CCSDS_OMM_VERS = 2.0
CREATION_DATE  = 
ORIGINATOR     = 

OBJECT_NAME    = SL-14 R/B
OBJECT_ID      = 1990-010B
CENTER_NAME    = EARTH
REF_FRAME      = TEME
TIME_SYSTEM    = UTC
MEAN_ELEMENT_THEORY = SGP/SGP4

EPOCH          = 2026-03-10T23:14:28.224672
MEAN_MOTION    = 14.83569944
ECCENTRICITY   = .00184707
INCLINATION    = 82.4988
RA_OF_ASC_NODE = 266.1873
ARG_OF_PERICENTER = 297.7994
MEAN_ANOMALY   = 62.1348

EPHEMERIS_TYPE = 0
CLASSIFICATION_TYPE = U
NORAD_CAT_ID   = 20466
ELEMENT_SET_NO = 999
REV_AT_EPOCH   = 92867
BSTAR          = .56414411E-4
MEAN_MOTION_DOT = .489E-5
MEAN_MOTION_DDOT = 0

CCSDS_OMM_VERS = 2.0
CREATION_DATE  = 
ORIGINATOR     = 

OBJECT_NAME    = SL-14 R/B
OBJECT_ID      = 1990-018B
CENTER_NAME    = EARTH
REF_FRAME      = TEME
TIME_SYSTEM    = UTC
MEAN_ELEMENT_THEORY = SGP/SGP4

EPOCH          = 2026-03-10T22:04:43.315392
MEAN_MOTION    = 14.82146372
ECCENTRICITY   = .00176664
INCLINATION    = 82.5205
RA_OF_ASC_NODE = 221.9395
ARG_OF_PERICENTER = 88.3207
MEAN_ANOMALY   = 272.0031

EPHEMERIS_TYPE = 0
CLASSIFICATION_TYPE = U
NORAD_CAT_ID   = 20511
ELEMENT_SET_NO = 999
REV_AT_EPOCH   = 92276
BSTAR          = .76456138E-4
MEAN_MOTION_DOT = .634E-5
MEAN_MOTION_DDOT = 0

CCSDS_OMM_VERS = 2.0
CREATION_DATE  = 
ORIGINATOR     = 

OBJECT_NAME    = HST
OBJECT_ID      = 1990-037B
CENTER_NAME    = EARTH
REF_FRAME      = TEME
TIME_SYSTEM    = UTC
MEAN_ELEMENT_THEORY = SGP/SGP4

EPOCH          = 2026-03-10T23:40:55.962048
MEAN_MOTION    = 15.29506520
ECCENTRICITY   = .00018529
INCLINATION    = 28.4718
RA_OF_ASC_NODE = 31.1498
ARG_OF_PERICENTER = 138.4359
MEAN_ANOMALY   = 221.6377

EPHEMERIS_TYPE = 0
CLASSIFICATION_TYPE = U
NORAD_CAT_ID   = 20580
ELEMENT_SET_NO = 999
REV_AT_EPOCH   = 77351
BSTAR          = .29253951E-3
MEAN_MOTION_DOT = .8846E-4
MEAN_MOTION_DDOT = 0

CCSDS_OMM_VERS = 2.0
CREATION_DATE  = 
ORIGINATOR     = 

OBJECT_NAME    = SL-16 R/B
OBJECT_ID      = 1990-046B
CENTER_NAME    = EARTH
REF_FRAME      = TEME
TIME_SYSTEM    = UTC
MEAN_ELEMENT_THEORY = SGP/SGP4

EPOCH          = 2026-03-10T21:34:29.353440
MEAN_MOTION    = 14.15011999
ECCENTRICITY   = .00162269
INCLINATION    = 70.9986
RA_OF_ASC_NODE = 295.3750
ARG_OF_PERICENTER = 297.9865
MEAN_ANOMALY   = 61.9615

EPHEMERIS_TYPE = 0
CLASSIFICATION_TYPE = U
NORAD_CAT_ID   = 20625
ELEMENT_SET_NO = 999
REV_AT_EPOCH   = 84856
BSTAR          = -.84396681E-4
MEAN_MOTION_DOT = -.211E-5
MEAN_MOTION_DDOT = 0

CCSDS_OMM_VERS = 2.0
CREATION_DATE  = 
ORIGINATOR     = 

OBJECT_NAME    = COSMOS 2084
OBJECT_ID      = 1990-055A
CENTER_NAME    = EARTH
REF_FRAME      = TEME
TIME_SYSTEM    = UTC
MEAN_ELEMENT_THEORY = SGP/SGP4

EPOCH          = 2026-03-10T22:01:04.875456
MEAN_MOTION    = 15.05660234
ECCENTRICITY   = .00169096
INCLINATION    = 62.7921
RA_OF_ASC_NODE = 331.3911
ARG_OF_PERICENTER = 190.3877
MEAN_ANOMALY   = 169.6877

EPHEMERIS_TYPE = 0
CLASSIFICATION_TYPE = U
NORAD_CAT_ID   = 20663
ELEMENT_SET_NO = 999
REV_AT_EPOCH   = 93650
BSTAR          = .21410736E-3
MEAN_MOTION_DOT = .2914E-4
MEAN_MOTION_DDOT = 0

CCSDS_OMM_VERS = 2.0
CREATION_DATE  = 
ORIGINATOR     = 

OBJECT_NAME    = SL-6 R/B(2)
OBJECT_ID      = 1990-055D
CENTER_NAME    = EARTH
REF_FRAME      = TEME
TIME_SYSTEM    = UTC
MEAN_ELEMENT_THEORY = SGP/SGP4

EPOCH          = 2026-03-10T21:38:30.124320
MEAN_MOTION    = 15.03601272
ECCENTRICITY   = .00249781
INCLINATION    = 62.7825
RA_OF_ASC_NODE = 249.7283
ARG_OF_PERICENTER = 347.3471
MEAN_ANOMALY   = 12.6998

EPHEMERIS_TYPE = 0
CLASSIFICATION_TYPE = U
NORAD_CAT_ID   = 20666
ELEMENT_SET_NO = 999
REV_AT_EPOCH   = 93837
BSTAR          = .19859077E-3
MEAN_MOTION_DOT = .2544E-4
MEAN_MOTION_DDOT = 0

CCSDS_OMM_VERS = 2.0
CREATION_DATE  = 
ORIGINATOR     = 

OBJECT_NAME    = SL-8 R/B
OBJECT_ID      = 1990-078B
CENTER_NAME    = EARTH
REF_FRAME      = TEME
TIME_SYSTEM    = UTC
MEAN_ELEMENT_THEORY = SGP/SGP4

EPOCH          = 2026-03-10T22:04:06.658464
MEAN_MOTION    = 14.89109183
ECCENTRICITY   = .03619725
INCLINATION    = 82.9009
RA_OF_ASC_NODE = 250.2045
ARG_OF_PERICENTER = 9.8615
MEAN_ANOMALY   = 350.9457

EPHEMERIS_TYPE = 0
CLASSIFICATION_TYPE = U
NORAD_CAT_ID   = 20775
ELEMENT_SET_NO = 999
REV_AT_EPOCH   = 80948
BSTAR          = .55321607E-3
MEAN_MOTION_DOT = .18781E-3
MEAN_MOTION_DDOT = 0

CCSDS_OMM_VERS = 2.0
CREATION_DATE  = 
ORIGINATOR     = 

OBJECT_NAME    = SL-8 R/B
OBJECT_ID      = 1991-006B
CENTER_NAME    = EARTH
REF_FRAME      = TEME
TIME_SYSTEM    = UTC
MEAN_ELEMENT_THEORY = SGP/SGP4

EPOCH          = 2026-03-10T19:09:50.164128
MEAN_MOTION    = 13.77494391
ECCENTRICITY   = .00230151
INCLINATION    = 82.9466
RA_OF_ASC_NODE = 169.2217
ARG_OF_PERICENTER = 35.2911
MEAN_ANOMALY   = 85.1935

EPHEMERIS_TYPE = 0
CLASSIFICATION_TYPE = U
NORAD_CAT_ID   = 21088
ELEMENT_SET_NO = 999
REV_AT_EPOCH   = 76422
BSTAR          = .64914211E-4
MEAN_MOTION_DOT = .8E-6
MEAN_MOTION_DDOT = 0

CCSDS_OMM_VERS = 2.0
CREATION_DATE  = 
ORIGINATOR     = 

OBJECT_NAME    = OKEAN-3
OBJECT_ID      = 1991-039A
CENTER_NAME    = EARTH
REF_FRAME      = TEME
TIME_SYSTEM    = UTC
MEAN_ELEMENT_THEORY = SGP/SGP4

EPOCH          = 2026-03-10T19:25:35.336928
MEAN_MOTION    = 15.04815448
ECCENTRICITY   = .00138578
INCLINATION    = 82.5193
RA_OF_ASC_NODE = 335.7590
ARG_OF_PERICENTER = 333.9632
MEAN_ANOMALY   = 26.0896

EPHEMERIS_TYPE = 0
CLASSIFICATION_TYPE = U
NORAD_CAT_ID   = 21397
ELEMENT_SET_NO = 999
REV_AT_EPOCH   = 86520
BSTAR          = .31096854E-3
MEAN_MOTION_DOT = .4425E-4
MEAN_MOTION_DDOT = 0

CCSDS_OMM_VERS = 2.0
CREATION_DATE  = 
ORIGINATOR     = 

OBJECT_NAME    = COSMOS 2151
OBJECT_ID      = 1991-042A
CENTER_NAME    = EARTH
REF_FRAME      = TEME
TIME_SYSTEM    = UTC
MEAN_ELEMENT_THEORY = SGP/SGP4

EPOCH          = 2026-03-10T22:49:01.807104
MEAN_MOTION    = 15.00109107
ECCENTRICITY   = .00139601
INCLINATION    = 82.4930
RA_OF_ASC_NODE = 82.4595
ARG_OF_PERICENTER = 60.0746
MEAN_ANOMALY   = 300.1862

EPHEMERIS_TYPE = 0
CLASSIFICATION_TYPE = U
NORAD_CAT_ID   = 21422
ELEMENT_SET_NO = 999
REV_AT_EPOCH   = 86338
BSTAR          = .14724853E-3
MEAN_MOTION_DOT = .1866E-4
MEAN_MOTION_DDOT = 0

CCSDS_OMM_VERS = 2.0
CREATION_DATE  = 
ORIGINATOR     = 

OBJECT_NAME    = SL-14 R/B
OBJECT_ID      = 1991-042B
CENTER_NAME    = EARTH
REF_FRAME      = TEME
TIME_SYSTEM    = UTC
MEAN_ELEMENT_THEORY = SGP/SGP4

EPOCH          = 2026-03-10T21:44:10.746816
MEAN_MOTION    = 14.81831051
ECCENTRICITY   = .0015845
INCLINATION    = 82.4926
RA_OF_ASC_NODE = 219.0420
ARG_OF_PERICENTER = 234.3485
MEAN_ANOMALY   = 125.6254

EPHEMERIS_TYPE = 0
CLASSIFICATION_TYPE = U
NORAD_CAT_ID   = 21423
ELEMENT_SET_NO = 999
REV_AT_EPOCH   = 85325
BSTAR          = .7571027E-4
MEAN_MOTION_DOT = .622E-5
MEAN_MOTION_DDOT = 0

